NORAD_CAT_ID,OBJECT_NAME,OBJECT_TYPE,EPOCH,MEAN_MOTION,ECCENTRICITY,INCLINATION,RA_OF_ASC_NODE,ARG_OF_PERICENTER,MEAN_ANOMALY,BSTAR,MEAN_MOTION_DOT,MEAN_MOTION_DDOT,TLE_LINE0,TLE_LINE1,TLE_LINE2,SEMIMAJOR_AXIS,PERIOD,APOGEE,PERIGEE,DECAYED
52872.0,STARLINK-4213,PAYLOAD,2023-04-06 07:37:54,15.08839816,0.0001443,53.2167,130.2273,98.7463,261.3693,0.00020225,2.932e-05,0.0,0 STARLINK-4213,1 52872U 22062AU  23096.31799263  .00002932  00000-0  20225-3 0  9996,2 52872  53.2167 130.2273 0001443  98.7463 261.3693 15.08839816 45263,6917.881,95.438,540.744,538.748,0.0
52872.0,STARLINK-4213,PAYLOAD,2023-04-06 12:24:03,15.08843062,0.000142,53.2166,129.3351,99.3769,260.7384,0.00021883,3.197e-05,0.0,0 STARLINK-4213,1 52872U 22062AU  23096.51671134  .00003197  00000-0  21883-3 0  9999,2 52872  53.2166 129.3351 0001420  99.3769 260.7384 15.08843062 44806,6917.871,95.437,540.718,538.754,0.0
52872.0,STARLINK-4213,PAYLOAD,2023-04-06 18:45:36,15.08836175,0.0001567,53.2172,128.1455,104.7804,255.3362,4.1536e-05,3.73e-06,0.0,0 STARLINK-4213,1 52872U 22062AU  23096.78167305  .00000373  00000-0  41536-4 0  9999,2 52872  53.2172 128.1455 0001567 104.7804 255.3362 15.08836175 44845,6917.892,95.438,540.841,538.673,0.0
52872.0,STARLINK-4213,PAYLOAD,2023-04-07 12:14:51,15.08840367,0.0001458,53.2165,124.874,102.5753,257.5403,0.00030828,4.622e-05,0.0,0 STARLINK-4213,1 52872U 22062AU  23097.51031338  .00004622  00000-0  30828-3 0  9999,2 52872  53.2165 124.8740 0001458 102.5753 257.5403 15.08840367 45440,6917.879,95.438,540.753,538.736,0.0
52872.0,STARLINK-4213,PAYLOAD,2023-04-08 10:30:16,15.08820742,0.0001542,53.2174,120.7119,97.9911,262.1256,-0.00011777,-2.161e-05,0.0,0 STARLINK-4213,1 52872U 22062AU  23098.43769243 -.00002161  00000-0 -11777-3 0  9994,2 52872  53.2174 120.7119 0001542  97.9911 262.1256 15.08820742 45580,6917.939,95.439,540.871,538.738,0.0
52872.0,STARLINK-4213,PAYLOAD,2023-04-08 18:27:12,15.08831091,0.0001237,53.2161,119.2271,101.1245,258.9886,1.1814e-05,-1e-06,0.0,0 STARLINK-4213,1 52872U 22062AU  23098.76889040 -.00000100  00000-0  11814-4 0  9991,2 52872  53.2161 119.2271 0001237 101.1245 258.9886 15.08831091 45634,6917.908,95.438,540.628,538.917,0.0
52872.0,STARLINK-4213,PAYLOAD,2023-04-09 08:45:40,15.08849561,0.0001572,53.2163,116.5486,101.0156,259.1013,0.0011225,0.00017626,0.0,0 STARLINK-4213,1 52872U 22062AU  23099.36505468  .00017626  00000-0  11225-2 0  9991,2 52872  53.2163 116.5486 0001572 101.0156 259.1013 15.08849561 45722,6917.851,95.437,540.804,538.629,0.0
52872.0,STARLINK-4213,PAYLOAD,2023-04-09 18:17:59,15.08858738,0.0001681,53.2159,114.7657,92.8182,267.3002,0.00084889,0.00013255,0.0,0 STARLINK-4213,1 52872U 22062AU  23099.76249162  .00013255  00000-0  84889-3 0  9992,2 52872  53.2159 114.7657 0001681  92.8182 267.3002 15.08858738 45291,6917.823,95.436,540.851,538.525,0.0
52872.0,STARLINK-4213,PAYLOAD,2023-04-10 10:11:49,15.08870884,0.000152,53.2159,111.7909,98.8974,261.219,0.0010029,0.00015723,0.0,0 STARLINK-4213,1 52872U 22062AU  23100.42488100  .00015723  00000-0  10029-2 0  9991,2 52872  53.2159 111.7909 0001520  98.8974 261.2190 15.08870884 45887,6917.786,95.436,540.702,538.599,0.0
52872.0,STARLINK-4213,PAYLOAD,2023-04-10 18:08:45,15.0886232,0.0001712,53.2157,110.3031,98.5065,261.6122,0.00048399,7.428e-05,0.0,0 STARLINK-4213,1 52872U 22062AU  23100.75608015  .00007428  00000-0  48399-3 0  9991,2 52872  53.2157 110.3031 0001712  98.5065 261.6122 15.08862320 45938,6917.812,95.436,540.861,538.493,0.0
52872.0,STARLINK-4213,PAYLOAD,2023-04-11 11:37:59,15.08861579,0.000151,53.2168,107.0327,99.9817,260.1345,0.00033978,5.127e-05,0.0,0 STARLINK-4213,1 52872U 22062AU  23101.48471249  .00005127  00000-0  33978-3 0  9990,2 52872  53.2168 107.0327 0001510  99.9817 260.1345 15.08861579 46046,6917.814,95.436,540.724,538.635,0.0
52872.0,STARLINK-4213,PAYLOAD,2023-04-11 17:59:32,15.08841337,0.0001676,53.2173,105.8437,90.6729,269.4455,-0.00012084,-2.211e-05,0.0,0 STARLINK-4213,1 52872U 22062AU  23101.74967796 -.00002211  00000-0 -12084-3 0  9994,2 52872  53.2173 105.8437 0001676  90.6729 269.4455 15.08841337 46081,6917.876,95.437,540.901,538.582,0.0
52872.0,STARLINK-4213,PAYLOAD,2023-04-12 09:53:23,15.08839677,0.0001464,53.2177,102.8709,93.0146,267.1014,0.00018758,2.699e-05,0.0,0 STARLINK-4213,1 52872U 22062AU  23102.41207978  .00002699  00000-0  18758-3 0  9990,2 52872  53.2177 102.8709 0001464  93.0146 267.1014 15.08839677 45695,6917.881,95.438,540.759,538.734,0.0
52872.0,STARLINK-4213,PAYLOAD,2023-04-13 09:44:10,15.08849759,0.000148,53.2179,98.4102,89.0015,271.1147,0.00052017,8.002e-05,0.0,0 STARLINK-4213,1 52872U 22062AU  23103.40567930  .00008002  00000-0  52017-3 0  9997,2 52872  53.2179  98.4102 0001480  89.0015 271.1147 15.08849759 45843,6917.851,95.437,540.739,538.692,0.0
52872.0,STARLINK-4213,PAYLOAD,2023-04-14 06:24:11,15.0884666,0.0001388,53.2169,94.5444,90.2003,269.9148,0.0002343,3.444e-05,0.0,0 STARLINK-4213,1 52872U 22062AU  23104.26679838  .00003444  00000-0  23430-3 0  9995,2 52872  53.2169  94.5444 0001388  90.2003 269.9148 15.08846660 45974,6917.86,95.437,540.685,538.765,0.0
52872.0,STARLINK-4213,PAYLOAD,2023-04-14 15:56:28,15.0887345,0.0001858,53.2164,92.7597,99.3092,260.811,0.00057669,8.91e-05,0.0,0 STARLINK-4213,1 52872U 22062AU  23104.66422209  .00008910  00000-0  57669-3 0  9991,2 52872  53.2164  92.7597 0001858  99.3092 260.8110 15.08873450 46526,6917.778,95.435,540.928,538.358,0.0
52872.0,STARLINK-4213,PAYLOAD,2023-04-14 22:17:54,15.09023258,3.13e-05,53.2167,91.5699,268.9278,91.1678,0.0031212,0.00049989,0.0,0 STARLINK-4213,1 52872U 22062AU  23104.92910343  .00049989  00000-0  31212-2 0  9997,2 52872  53.2167  91.5699 0000313 268.9278  91.1678 15.09023258 46566,6917.32,95.426,539.402,538.969,0.0
52872.0,STARLINK-4213,PAYLOAD,2023-04-15 09:25:12,15.09357457,0.0001148,53.2184,89.4882,113.2413,246.87,0.006287,0.00102677,0.0,0 STARLINK-4213,1 52872U 22062AU  23105.39250404  .00102677  00000-0  62870-2 0  9992,2 52872  53.2184  89.4882 0001148 113.2413 246.8700 15.09357457 46639,6916.299,95.405,538.958,537.37,0.0
52872.0,STARLINK-4213,PAYLOAD,2023-04-15 15:46:30,15.09511373,0.0001245,53.2166,88.2962,102.3386,257.7746,0.0075413,0.00124118,0.0,0 STARLINK-4213,1 52872U 22062AU  23105.65729461  .00124118  00000-0  75413-2 0  9996,2 52872  53.2166  88.2962 0001245 102.3386 257.7746 15.09511373 46675,6915.829,95.395,538.555,536.833,0.0
52872.0,STARLINK-4213,PAYLOAD,2023-04-16 10:00:00,15.10452503,0.0001508,53.2163,84.8822,86.3807,84.4785,0.0024479,0.00040666,0.0,0 STARLINK-4213,1 52872U 22062AU  23106.41667824  .00040666  00000-0  24479-2 0  9996,2 52872  53.2163  84.8822 0001508  86.3807  84.4785 15.10452503 46792,6912.956,95.336,535.863,533.779,0.0
52872.0,STARLINK-4213,PAYLOAD,2023-04-16 22:00:00,15.10520582,0.0001551,53.2164,82.6299,103.8532,267.3371,-0.028567,-0.00447781,0.0,0 STARLINK-4213,1 52872U 22062AU  23106.91667824 -.00447781  00000-0 -28567-1 0  9993,2 52872  53.2164  82.6299 0001551 103.8532 267.3371 15.10520582 46869,6912.748,95.331,535.685,533.541,0.0
52872.0,STARLINK-4213,PAYLOAD,2023-04-17 14:00:01,15.09892475,0.0001536,53.2162,79.6314,85.3387,312.3013,-0.032816,-0.00506719,0.0,0 STARLINK-4213,1 52872U 22062AU  23107.58334491 -.00506719  00000-0 -32816-1 0  9997,2 52872  53.2162  79.6314 0001536  85.3387 312.3013 15.09892475 46962,6914.665,95.371,537.592,535.468,0.0
52872.0,STARLINK-4213,PAYLOAD,2023-04-17 22:00:00,15.0955687,0.0001581,53.2165,78.1322,90.8739,319.4061,-0.030665,-0.00466772,0.0,0 STARLINK-4213,1 52872U 22062AU  23107.91667824 -.00466772  00000-0 -30665-1 0  9997,2 52872  53.2165  78.1322 0001581  90.8739 319.4061 15.09556870  1306,6915.69,95.392,538.648,536.462,0.0
52872.0,STARLINK-4213,PAYLOAD,2023-04-18 14:00:01,15.08866948,0.0001736,53.2168,75.1381,86.5667,347.8262,-0.003691,-0.00058596,0.0,0 STARLINK-4213,1 52872U 22062AU  23108.58334491 -.00058596  00000-0 -36910-2 0  9993,2 52872  53.2168  75.1381 0001736  86.5667 347.8262 15.08866948  1302,6917.798,95.436,540.864,538.462,0.0
52872.0,STARLINK-4213,PAYLOAD,2023-04-18 15:15:49,15.09424097,0.0001524,53.2183,74.9056,77.6677,282.4486,-0.010398,-0.00164631,0.0,0 STARLINK-4213,1 52872U 22062AU  23108.63598841 -.00164631  00000-0 -10398-1 0  9999,2 52872  53.2183  74.9056 0001524  77.6677 282.4486 15.09424097 47120,6916.096,95.401,539.015,536.907,0.0
52872.0,STARLINK-4213,PAYLOAD,2023-04-19 08:44:51,15.09199481,0.0001567,53.2175,71.6324,78.2258,281.891,-0.0085529,-0.00135189,0.0,0 STARLINK-4213,1 52872U 22062AU  23109.36449012 -.00135189  00000-0 -85529-2 0  9990,2 52872  53.2175  71.6324 0001567  78.2258 281.8910 15.09199481 47235,6916.782,95.415,539.731,537.563,0.0
52872.0,STARLINK-4213,PAYLOAD,2023-04-19 13:31:01,15.09127127,0.0001688,53.2184,70.7408,82.4287,277.6897,-0.0074769,-0.00118263,0.0,0 STARLINK-4213,1 52872U 22062AU  23109.56321030 -.00118263  00000-0 -74769-2 0  9999,2 52872  53.2184  70.7408 0001688  82.4287 277.6897 15.09127127 46774,6917.003,95.419,540.035,537.7,0.0
52872.0,STARLINK-4213,PAYLOAD,2023-04-20 14:00:01,15.08822328,0.0001603,53.2182,66.1599,108.3003,35.6535,0.00030029,4.492e-05,0.0,0 STARLINK-4213,1 52872U 22062AU  23110.58334491  .00004492  00000-0  30029-3 0  9996,2 52872  53.2182  66.1599 0001603 108.3003  35.6535 15.08822328  1308,6917.934,95.439,540.908,538.69,0.0
52872.0,STARLINK-4213,PAYLOAD,2023-04-20 22:00:00,15.08829224,0.0001682,53.2184,64.6633,111.9375,43.5672,0.0012185,0.00019152,0.0,0 STARLINK-4213,1 52872U 22062AU  23110.91667824  .00019152  00000-0  12185-2 0  9993,2 52872  53.2184  64.6633 0001682 111.9375  43.5672 15.08829224  1303,6917.913,95.438,540.942,538.615,0.0
52872.0,STARLINK-4213,PAYLOAD,2023-04-21 13:12:42,15.08833869,0.0001526,53.2177,61.8176,106.6674,253.4486,7.6354e-05,9.27e-06,0.0,0 STARLINK-4213,1 52872U 22062AU  23111.55048869  .00000927  00000-0  76354-4 0  9996,2 52872  53.2177  61.8176 0001526 106.6674 253.4486 15.08833869 47569,6917.899,95.438,540.82,538.708,0.0
